GUOWANG GROUP 20 OBJECT*
1 68137U 26047J   26082.88983446 -.00000137  00000+0  91454-5 0  9991
2 68137  50.0081  12.5219 0000175 124.6965 235.3956 14.02259904  1568
CZ-8A R/B               
1 68138U 26047K   26089.27832029 -.00000125  00000+0  15459-4 0  9999
2 68138  49.9537 345.5385 0044756 209.0343 150.8074 14.12232302  2462
SHIYAN-30 03            
1 68139U 26048A   26089.25265623  .00003615  00000+0  35481-3 0  9991
2 68139  35.0013  20.8294 0003016  11.5329 348.5445 14.91734956  2573
SHIYAN-30 04            
1 68140U 26048B   26089.25335645  .00003460  00000+0  33966-3 0  9999
2 68140  34.9928  20.8302 0001519   7.7075 352.3653 14.91743115  2570
CZ-2D R/B               
1 68141U 26048C   26089.27811020  .00002267  00000+0  20281-3 0  9998
2 68141  35.1310  20.4246 0015184 147.5454 212.6191 14.95568985  2589
STARLINK-36604          
1 68142U 26049A   26089.04893530  .00072373  00000+0  37501-3 0  9999
2 68142  97.2842 109.3052 0001697  90.9376 269.2086 15.80840760  2624
STARLINK-36995          
1 68143U 26049B   26089.04818490  .00088585  00000+0  45805-3 0  9990
2 68143  97.2844 109.3058 0001608 100.2509 259.8941 15.80838842  2621
STARLINK-37020          
1 68144U 26049C   26089.23658787  .00183350  00000+0  93680-3 0  9993
2 68144  97.2843 109.5093 0001272 103.4016 256.7395 15.80843453  2653
STARLINK-36244          
1 68145U 26049D   26089.25002315 -.00005241  00000+0 -34291-4 0  9994
2 68145  97.2840 109.5029 0001492  66.3340 322.0209 15.75189158  3933
STARLINK-36980          
1 68146U 26049E   26089.23583729  .00269856  00000+0  13628-2 0  9997
2 68146  97.2845 109.5096 0001310  73.1045 287.0367 15.80873886  2657
STARLINK-37055          
1 68147U 26049F   26089.30064229  .00222896  00000+0  11320-2 0  9995
2 68147  97.2843 109.5744 0001810 112.4029 247.7431 15.80871447  2667
STARLINK-36981          
1 68148U 26049G   26089.23433396  .00235346  00000+0  11943-2 0  9998
2 68148  97.2845 109.5113 0001474  69.2052 290.9374 15.80858001  2657
