CCSDS_OMM_VERS = 2.0
CREATION_DATE  = 
ORIGINATOR     = 

OBJECT_NAME    = GUOWANG GROUP 20 OBJECT J
OBJECT_ID      = 2026-047J
CENTER_NAME    = EARTH
REF_FRAME      = TEME
TIME_SYSTEM    = UTC
MEAN_ELEMENT_THEORY = SGP/SGP4

EPOCH          = 2026-03-23T21:21:21.697344
MEAN_MOTION    = 14.02259904
ECCENTRICITY   = .0000175
INCLINATION    = 50.0081
RA_OF_ASC_NODE = 12.5219
ARG_OF_PERICENTER = 124.6965
MEAN_ANOMALY   = 235.3956

EPHEMERIS_TYPE = 0
CLASSIFICATION_TYPE = U
NORAD_CAT_ID   = 68137
ELEMENT_SET_NO = 999
REV_AT_EPOCH   = 156
BSTAR          = .91454E-5
MEAN_MOTION_DOT = -.137E-5
MEAN_MOTION_DDOT = 0

CCSDS_OMM_VERS = 2.0
CREATION_DATE  = 
ORIGINATOR     = 

OBJECT_NAME    = CZ-8A R/B
OBJECT_ID      = 2026-047K
CENTER_NAME    = EARTH
REF_FRAME      = TEME
TIME_SYSTEM    = UTC
MEAN_ELEMENT_THEORY = SGP/SGP4

EPOCH          = 2026-03-30T06:40:46.873056
MEAN_MOTION    = 14.12232302
ECCENTRICITY   = .00447561
INCLINATION    = 49.9537
RA_OF_ASC_NODE = 345.5385
ARG_OF_PERICENTER = 209.0343
MEAN_ANOMALY   = 150.8074

EPHEMERIS_TYPE = 0
CLASSIFICATION_TYPE = U
NORAD_CAT_ID   = 68138
ELEMENT_SET_NO = 999
REV_AT_EPOCH   = 246
BSTAR          = .15459466E-4
MEAN_MOTION_DOT = -.125E-5
MEAN_MOTION_DDOT = 0

CCSDS_OMM_VERS = 2.0
CREATION_DATE  = 
ORIGINATOR     = 

OBJECT_NAME    = SHIYAN-30 03
OBJECT_ID      = 2026-048A
CENTER_NAME    = EARTH
REF_FRAME      = TEME
TIME_SYSTEM    = UTC
MEAN_ELEMENT_THEORY = SGP/SGP4

EPOCH          = 2026-03-30T06:03:49.498272
MEAN_MOTION    = 14.91734956
ECCENTRICITY   = .00030166
INCLINATION    = 35.0013
RA_OF_ASC_NODE = 20.8294
ARG_OF_PERICENTER = 11.5329
MEAN_ANOMALY   = 348.5445

EPHEMERIS_TYPE = 0
CLASSIFICATION_TYPE = U
NORAD_CAT_ID   = 68139
ELEMENT_SET_NO = 999
REV_AT_EPOCH   = 257
BSTAR          = .35480677E-3
MEAN_MOTION_DOT = .3615E-4
MEAN_MOTION_DDOT = 0

CCSDS_OMM_VERS = 2.0
CREATION_DATE  = 
ORIGINATOR     = 

OBJECT_NAME    = SHIYAN-30 04
OBJECT_ID      = 2026-048B
CENTER_NAME    = EARTH
REF_FRAME      = TEME
TIME_SYSTEM    = UTC
MEAN_ELEMENT_THEORY = SGP/SGP4

EPOCH          = 2026-03-30T06:04:49.997280
MEAN_MOTION    = 14.91743115
ECCENTRICITY   = .00015197
INCLINATION    = 34.9928
RA_OF_ASC_NODE = 20.8302
ARG_OF_PERICENTER = 7.7075
MEAN_ANOMALY   = 352.3653

EPHEMERIS_TYPE = 0
CLASSIFICATION_TYPE = U
NORAD_CAT_ID   = 68140
ELEMENT_SET_NO = 999
REV_AT_EPOCH   = 257
BSTAR          = .3396593E-3
MEAN_MOTION_DOT = .346E-4
MEAN_MOTION_DDOT = 0

CCSDS_OMM_VERS = 2.0
CREATION_DATE  = 
ORIGINATOR     = 

OBJECT_NAME    = CZ-2D R/B
OBJECT_ID      = 2026-048C
CENTER_NAME    = EARTH
REF_FRAME      = TEME
TIME_SYSTEM    = UTC
MEAN_ELEMENT_THEORY = SGP/SGP4

EPOCH          = 2026-03-30T06:40:28.721280
MEAN_MOTION    = 14.95568985
ECCENTRICITY   = .00151848
INCLINATION    = 35.1310
RA_OF_ASC_NODE = 20.4246
ARG_OF_PERICENTER = 147.5454
MEAN_ANOMALY   = 212.6191

EPHEMERIS_TYPE = 0
CLASSIFICATION_TYPE = U
NORAD_CAT_ID   = 68141
ELEMENT_SET_NO = 999
REV_AT_EPOCH   = 258
BSTAR          = .20281203E-3
MEAN_MOTION_DOT = .2267E-4
MEAN_MOTION_DDOT = 0

CCSDS_OMM_VERS = 2.0
CREATION_DATE  = 
ORIGINATOR     = 

OBJECT_NAME    = STARLINK-36604
OBJECT_ID      = 2026-049A
CENTER_NAME    = EARTH
REF_FRAME      = TEME
TIME_SYSTEM    = UTC
MEAN_ELEMENT_THEORY = SGP/SGP4

EPOCH          = 2026-03-30T01:10:28.009920
MEAN_MOTION    = 15.80840760
ECCENTRICITY   = .0001697
INCLINATION    = 97.2842
RA_OF_ASC_NODE = 109.3052
ARG_OF_PERICENTER = 90.9376
MEAN_ANOMALY   = 269.2086

EPHEMERIS_TYPE = 0
CLASSIFICATION_TYPE = U
NORAD_CAT_ID   = 68142
ELEMENT_SET_NO = 999
REV_AT_EPOCH   = 262
BSTAR          = .37501313E-3
MEAN_MOTION_DOT = .72373E-3
MEAN_MOTION_DDOT = 0

CCSDS_OMM_VERS = 2.0
CREATION_DATE  = 
ORIGINATOR     = 

OBJECT_NAME    = STARLINK-36995
OBJECT_ID      = 2026-049B
CENTER_NAME    = EARTH
REF_FRAME      = TEME
TIME_SYSTEM    = UTC
MEAN_ELEMENT_THEORY = SGP/SGP4

EPOCH          = 2026-03-30T01:09:23.175360
MEAN_MOTION    = 15.80838842
ECCENTRICITY   = .00016081
INCLINATION    = 97.2844
RA_OF_ASC_NODE = 109.3058
ARG_OF_PERICENTER = 100.2509
MEAN_ANOMALY   = 259.8941

EPHEMERIS_TYPE = 0
CLASSIFICATION_TYPE = U
NORAD_CAT_ID   = 68143
ELEMENT_SET_NO = 999
REV_AT_EPOCH   = 262
BSTAR          = .45804779E-3
MEAN_MOTION_DOT = .88585E-3
MEAN_MOTION_DDOT = 0

CCSDS_OMM_VERS = 2.0
CREATION_DATE  = 
ORIGINATOR     = 

OBJECT_NAME    = STARLINK-37020
OBJECT_ID      = 2026-049C
CENTER_NAME    = EARTH
REF_FRAME      = TEME
TIME_SYSTEM    = UTC
MEAN_ELEMENT_THEORY = SGP/SGP4

EPOCH          = 2026-03-30T05:40:41.191968
MEAN_MOTION    = 15.80843453
ECCENTRICITY   = .00012725
INCLINATION    = 97.2843
RA_OF_ASC_NODE = 109.5093
ARG_OF_PERICENTER = 103.4016
MEAN_ANOMALY   = 256.7395

EPHEMERIS_TYPE = 0
CLASSIFICATION_TYPE = U
NORAD_CAT_ID   = 68144
ELEMENT_SET_NO = 999
REV_AT_EPOCH   = 265
BSTAR          = .93679929E-3
MEAN_MOTION_DOT = .18335E-2
MEAN_MOTION_DDOT = 0

CCSDS_OMM_VERS = 2.0
CREATION_DATE  = 
ORIGINATOR     = 

OBJECT_NAME    = STARLINK-36244
OBJECT_ID      = 2026-049D
CENTER_NAME    = EARTH
REF_FRAME      = TEME
TIME_SYSTEM    = UTC
MEAN_ELEMENT_THEORY = SGP/SGP4

EPOCH          = 2026-03-30T06:00:02.000160
MEAN_MOTION    = 15.75189158
ECCENTRICITY   = .00014925
INCLINATION    = 97.2840
RA_OF_ASC_NODE = 109.5029
ARG_OF_PERICENTER = 66.3340
MEAN_ANOMALY   = 322.0209

EPHEMERIS_TYPE = 0
CLASSIFICATION_TYPE = U
NORAD_CAT_ID   = 68145
ELEMENT_SET_NO = 999
REV_AT_EPOCH   = 393
BSTAR          = -.34291493E-4
MEAN_MOTION_DOT = -.5241E-4
MEAN_MOTION_DDOT = 0

CCSDS_OMM_VERS = 2.0
CREATION_DATE  = 
ORIGINATOR     = 

OBJECT_NAME    = STARLINK-36980
OBJECT_ID      = 2026-049E
CENTER_NAME    = EARTH
REF_FRAME      = TEME
TIME_SYSTEM    = UTC
MEAN_ELEMENT_THEORY = SGP/SGP4

EPOCH          = 2026-03-30T05:39:36.341856
MEAN_MOTION    = 15.80873886
ECCENTRICITY   = .00013106
INCLINATION    = 97.2845
RA_OF_ASC_NODE = 109.5096
ARG_OF_PERICENTER = 73.1045
MEAN_ANOMALY   = 287.0367

EPHEMERIS_TYPE = 0
CLASSIFICATION_TYPE = U
NORAD_CAT_ID   = 68146
ELEMENT_SET_NO = 999
REV_AT_EPOCH   = 265
BSTAR          = .13628368E-2
MEAN_MOTION_DOT = .269856E-2
MEAN_MOTION_DDOT = 0

CCSDS_OMM_VERS = 2.0
CREATION_DATE  = 
ORIGINATOR     = 

OBJECT_NAME    = STARLINK-37055
OBJECT_ID      = 2026-049F
CENTER_NAME    = EARTH
REF_FRAME      = TEME
TIME_SYSTEM    = UTC
MEAN_ELEMENT_THEORY = SGP/SGP4

EPOCH          = 2026-03-30T07:12:55.493856
MEAN_MOTION    = 15.80871447
ECCENTRICITY   = .00018103
INCLINATION    = 97.2843
RA_OF_ASC_NODE = 109.5744
ARG_OF_PERICENTER = 112.4029
MEAN_ANOMALY   = 247.7431

EPHEMERIS_TYPE = 0
CLASSIFICATION_TYPE = U
NORAD_CAT_ID   = 68147
ELEMENT_SET_NO = 999
REV_AT_EPOCH   = 266
BSTAR          = .11320496E-2
MEAN_MOTION_DOT = .222896E-2
MEAN_MOTION_DDOT = 0

CCSDS_OMM_VERS = 2.0
CREATION_DATE  = 
ORIGINATOR     = 

OBJECT_NAME    = STARLINK-36981
OBJECT_ID      = 2026-049G
CENTER_NAME    = EARTH
REF_FRAME      = TEME
TIME_SYSTEM    = UTC
MEAN_ELEMENT_THEORY = SGP/SGP4

EPOCH          = 2026-03-30T05:37:26.454144
MEAN_MOTION    = 15.80858001
ECCENTRICITY   = .00014749
INCLINATION    = 97.2845
RA_OF_ASC_NODE = 109.5113
ARG_OF_PERICENTER = 69.2052
MEAN_ANOMALY   = 290.9374

EPHEMERIS_TYPE = 0
CLASSIFICATION_TYPE = U
NORAD_CAT_ID   = 68148
ELEMENT_SET_NO = 999
REV_AT_EPOCH   = 265
BSTAR          = .11942634E-2
MEAN_MOTION_DOT = .235346E-2
MEAN_MOTION_DDOT = 0

